PROGRESS-MS 32          
1 65586U 25204A   25299.71634698  .00015600  00000+0  28569-3 0  9998
2 65586  51.6344  15.2829 0004605 341.7148  18.3675 15.49497961   279
CYGNUS NG-23            
1 65616U 25208A   25299.71634698  .00015600  00000+0  28569-3 0  9996
2 65616  51.6344  15.2829 0004605 341.7148  18.3675 15.49497961   228
DRAGONFLY               
1 65729U 98067XH  25299.91780449  .00095066  00000+0  12136-2 0  9998
2 65729  51.6321  12.8828 0002748  46.2882 313.8338 15.58484099  5837
1998-067XJ              
1 65730U 98067XJ  25299.59545147  .00215253  00000+0  20956-2 0  9999
2 65730  51.6307  13.7267 0009895  16.8940 343.2383 15.64976642  5797
1998-067XK              
1 65731U 98067XK  25299.61468170  .00067037  00000+0  91742-3 0  9990
2 65731  51.6331  14.6085 0004266  18.3390 341.7755 15.56772685  5783
RSP-03                  
1 65732U 98067XL  25299.92690132  .00081728  00000+0  10797-2 0  9993
2 65732  51.6327  12.9438 0005052  20.1421 339.9769 15.57630696  5849
GHS-01                  
1 65733U 98067XM  25299.91181963  .00103663  00000+0  12932-2 0  9996
2 65733  51.6330  12.8443 0003108  41.9991 318.1240 15.59054564  5841
YOTSUBA-KULOVER         
1 65941U 98067XN  25299.43752335  .00050897  00000+0  81796-3 0  9996
2 65941  51.6338  16.4226 0002354 309.1775  50.9005 15.52498058  2491
BOTAN                   
1 65942U 98067XP  25299.62744068  .00072575  00000+0  11331-2 0  9996
2 65942  51.6339  15.4407 0004191 334.4540  25.6243 15.53142007  2523
E-KAGAKU-1              
1 65943U 98067XQ  25299.43713291  .00049272  00000+0  79166-3 0  9999
2 65943  51.6337  16.4198 0004085 323.6954  36.3758 15.52513453  2493
HRC MONOBLOCK CAMERA    
1 66052U 98067XR  25299.84214890  .00031868  00000+0  55977-3 0  9993
2 66052  51.6329  14.6241 0004067 350.3096   9.7814 15.50213849  1556
